STARLINK-2411           
1 47826U 21018AR  25347.02225607  .00013798  00000+0  94354-3 0  9999
2 47826  53.0539 280.6825 0002499  92.1706 267.9569 15.06393678263535
STARLINK-2413           
1 47827U 21018AS  25347.00477515 -.00006527  00000+0 -41984-3 0  9990
2 47827  53.0554 270.9995 0001170  76.5922 283.5198 15.06385641263728
STARLINK-2415           
1 47828U 21018AT  25347.00659395 -.00003135  00000+0 -19179-3 0  9992
2 47828  53.0561 290.7550 0001128  88.6774 271.4344 15.06383596263395
STARLINK-2419           
1 47830U 21018AV  25347.02132991 -.00000986  00000+0 -47354-4 0  9993
2 47830  53.0546 290.6832 0001047  86.1491 273.9618 15.06394247263387
STARLINK-2420           
1 47831U 21018AW  25346.95542680  .00007448  00000+0  51810-3 0  9994
2 47831  53.0551 265.9867 0002016 100.2301 259.8915 15.06421162263786
STARLINK-2422           
1 47832U 21018AX  25346.97802105 -.00002049  00000+0 -11876-3 0  9990
2 47832  53.0553 280.8818 0001146 122.2043 237.9058 15.06390091263524
STARLINK-2423           
1 47833U 21018AY  25347.00381601  .00003116  00000+0  22796-3 0  9996
2 47833  53.0548 280.7648 0002861 152.7278 207.3861 15.06406968263582
STARLINK-2424           
1 47834U 21018AZ  25347.01489686  .00000219  00000+0  33596-4 0  9992
2 47834  53.0551 280.7196 0001301  90.3395 269.7743 15.06384305263581
STARLINK-2426           
1 47836U 21018BB  25346.96695734  .00005124  00000+0  36238-3 0  9995
2 47836  53.0531 281.0162 0001787  93.3555 266.7638 15.06426105263526
STARLINK-2427           
1 47837U 21018BC  25346.97618685  .00003285  00000+0  23947-3 0  9996
2 47837  53.0526 260.8855 0001840 108.4706 251.6483 15.06375358263817
STARLINK-2429           
1 47838U 21018BD  25346.98909122  .00002201  00000+0  16667-3 0  9995
2 47838  53.0575 280.8383 0001596  64.4290 295.6864 15.06391633263520
STARLINK-2431           
1 47839U 21018BE  25347.01763004  .00022715  00000+0  15376-2 0  9995
2 47839  53.0544 250.7052 0001859 118.1295 241.9882 15.06432184263969
STARLINK-2432           
1 47840U 21018BF  25346.96144785  .00001885  00000+0  14550-3 0  9998
2 47840  53.0534 260.9542 0002459  91.5853 268.5418 15.06382157263805
STARLINK-2433           
1 47841U 21018BG  25347.02411643  .00018282  00000+0  12439-2 0  9999
2 47841  53.0532 260.6753 0001337  93.5437 266.5705 15.06376111263810
STARLINK-2435           
1 47843U 21018BJ  25346.98308940  .00014311  00000+0  97803-3 0  9998
2 47843  53.0548 285.8569 0001707 111.2981 248.8190 15.06387860263472
STARLINK-2446           
1 47844U 21018BK  25346.98170445 -.00002122  00000+0 -12361-3 0  9991
2 47844  53.0535 280.8586 0002260 125.7527 234.3673 15.06392104263523
STARLINK-2453           
1 47845U 21018BL  25347.00015412  .00000426  00000+0  47501-4 0  9996
2 47845  53.0560 280.7840 0001272 101.6222 258.4910 15.06381619263532
SHIYAN-9 (SY-9)         
1 47851U 21019A   25346.80984419 -.00000234  00000+0  00000+0 0  9999
2 47851  16.9358 304.8538 0016163  17.0285 198.1489  1.00277886 22261
YAOGAN-31 04A           
1 47854U 21020A   25347.04937999  .00000085  00000+0  27372-3 0  9990
2 47854  63.4083  16.2854 0158124 359.7581   0.3343 13.45429284233428
YAOGAN-31 04B           
1 47856U 21020C   25347.04957571  .00000052  00000+0  22204-3 0  9993
2 47856  63.4077  17.0814 0157849 359.8436   0.2515 13.45428862233365
YAOGAN-31 04C           
1 47857U 21020D   25347.04960270  .00000035  00000+0  19577-3 0  9994
2 47857  63.4088  16.3558 0157905 359.7101   0.3808 13.45428418233415
STARLINK-2280           
1 47861U 21021B   25347.01902377 -.00008410  00000+0 -54659-3 0  9998
2 47861  53.0547 295.6996 0001250  73.0553 287.0573 15.06386151263200
STARLINK-2291           
1 47862U 21021C   25346.99922004  .00010283  00000+0  70836-3 0  9998
2 47862  53.0546 290.7856 0001429  76.9163 283.1986 15.06391009263267
STARLINK-2326           
1 47870U 21021L   25346.94347186  .00002079  00000+0  15844-3 0  9996
2 47870  53.0560 316.0377 0001371  88.8737 271.2409 15.06401531262806
STARLINK-2329           
1 47873U 21021P   25346.57165266 -.00001369  00000+0 -73059-4 0  9991
2 47873  53.0555 292.7068 0001341  90.9828 269.1314 15.06378657263198
STARLINK-2330           
1 47874U 21021Q   25346.97941253  .00000038  00000+0  21445-4 0  9996
2 47874  53.0553 245.8825 0001493  95.4181 264.6979 15.06384114263896
STARLINK-2336           
1 47879U 21021V   25346.64121470  .00006150  00000+0  43111-3 0  9990
2 47879  53.0556 317.3952 0001654  82.6859 277.4318 15.06426571263038
STARLINK-2340           
1 47882U 21021Y   25346.99769527  .12719400  11834-4  50432-2 0  9990
2 47882  53.0135 196.2277 0007113 237.1020 122.9335 16.22920402264767
STARLINK-2342           
1 47883U 21021Z   25346.91858129 -.00013245  00000+0 -87230-3 0  9998
2 47883  53.0548 306.1503 0001418  83.9453 276.1698 15.06385147263214
STARLINK-2343           
1 47884U 21021AA  25346.63614671 -.00006073  00000+0 -38919-3 0  9991
2 47884  53.0539 312.4182 0001693  90.4116 269.7067 15.06396396262925
STARLINK-2346           
1 47887U 21021AD  25346.91996443  .00001546  00000+0  12262-3 0  9996
2 47887  53.0559 311.1449 0001487  95.4313 264.6846 15.06406309262977
STARLINK-2354           
1 47894U 21021AL  25346.58546206  .00006934  00000+0  48374-3 0  9994
2 47894  53.0540 302.6437 0001342  75.8362 284.2776 15.06417313263016
STARLINK-2355           
1 47895U 21021AM  25346.26478601  .00005528  00000+0  38961-3 0  9992
2 47895  53.0564 304.0885 0001484 103.4089 256.7066 15.06409078262998
STARLINK-2356           
1 47896U 21021AN  25346.65596338 -.00001794  00000+0 -10156-3 0  9993
2 47896  53.0556 317.3284 0002353  91.3938 268.7320 15.06396328262814
STARLINK-2358           
1 47898U 21021AQ  25346.58914770  .00000850  00000+0  75936-4 0  9999
2 47898  53.0548 302.6314 0001221  95.9387 264.1741 15.06402895263016
STARLINK-2361           
1 47901U 21021AT  25346.57533962 -.00009204  00000+0 -59996-3 0  9994
2 47901  53.0577 292.7776 0001795  87.0906 273.0289 15.06388850263198
STARLINK-2363           
1 47903U 21021AV  25346.58176321 -.00001709  00000+0 -95852-4 0  9993
2 47903  53.0561 292.6555 0001939  82.4354 277.6855 15.06387346263540
STARLINK-2364           
1 47904U 21021AW  25346.84440184 -.00001089  00000+0 -54217-4 0  9995
2 47904  53.0540 291.4836 0001734  98.6844 261.4341 15.06399423263228
STARLINK-2367           
1 47907U 21021AZ  25346.18646063  .00005497  00000+0  38754-3 0  9991
2 47907  53.0544 314.4357 0001432  96.3111 263.8042 15.06410522262829
STARLINK-2368           
1 47908U 21021BA  25347.00809796  .00953000  47027-3  15450-2 0  9991
2 47908  53.0450 280.1875 0008522 115.8931 244.2979 16.02827152263409
STARLINK-2370           
1 47910U 21021BC  25346.59286215 -.00001911  00000+0 -10946-3 0  9991
2 47910  53.0555 302.7742 0001827  84.8770 275.2428 15.06395930263072
STARLINK-2371           
1 47911U 21021BD  25346.65967656  .00003850  00000+0  27710-3 0  9993
2 47911  53.0550 317.5542 0001554  81.3766 278.7399 15.06413926262704
STARLINK-2378           
1 47916U 21021BJ  25346.23621842  .00011510  00000+0  78997-3 0  9991
2 47916  53.0541 294.2142 0001352 106.2277 253.8861 15.06416714263130
STARLINK-2405           
1 47919U 21021BM  25346.89785256  .00002257  00000+0  17041-3 0  9997
2 47919  53.0534 311.2463 0001811  86.5752 273.5444 15.06397663262955
CAS500-1                
1 47932U 21022A   25346.98148573  .00012859  00000+0  59527-3 0  9992
2 47932  97.4082 240.7487 0003737 203.4923 156.6142 15.20246034262475
GRUS-1C                 
1 47933U 21022B   25346.98582273  .00002681  00000+0  22862-3 0  9996
2 47933  97.5616 230.9895 0012554 223.5060 136.5174 14.98504573258012
GRUS-1B                 
1 47934U 21022C   25346.97318428  .00003845  00000+0  32545-3 0  9997
2 47934  97.5620 231.0336 0015357 223.3293 136.6724 14.98506267258003
GRUS-1E                 
1 47935U 21022D   25346.97954581  .00003622  00000+0  29751-3 0  9992
2 47935  97.5667 231.9453 0012906 220.1606 139.8665 14.99734314258044
GRUS-1D                 
1 47936U 21022E   25346.99283936  .00002100  00000+0  17993-3 0  9999
2 47936  97.5624 231.2470 0012439 214.2868 145.7553 14.98550795258012
WILDTRACKCUBE-SIMBA     
1 47941U 21022K   25346.97736238  .00132482  00000+0  12303-2 0  9997
2 47941  97.4049 257.6596 0006713  26.7376 333.4229 15.66993549262124
UNISAT-7                
1 47945U 21022P   25346.72072677  .00019908  00000+0  59409-3 0  9990
2 47945  97.4034 245.2962 0011636  32.8654 327.3310 15.34601034261200
GLOBAL-9                
1 47971U 21023G   25346.82376324  .00024779  00000+0  64557-3 0  9999
2 47971  44.9823 211.7593 0003616 196.4931 163.5839 15.38481151266160
STARLINK-1647           
1 47978U 21024B   25346.79509746  .00005956  00000+0  41843-3 0  9998
2 47978  53.0521   6.7046 0001353  86.9777 273.1367 15.06394975261469
STARLINK-2303           
1 47981U 21024E   25346.45233048  .00018617  00000+0  12653-2 0  9998
2 47981  53.0566   8.2414 0001285 107.0795 253.0335 15.06403499261416
STARLINK-2273           
1 47993U 21024S   25346.94622881  .00004480  00000+0  31944-3 0  9990
2 47993  53.0559 326.0260 0001320  96.2554 263.8586 15.06401781262042
STARLINK-2266           
1 47997U 21024W   25346.73289624  .00008282  00000+0  57420-3 0  9996
2 47997  53.0544 341.9829 0001883  72.2477 287.8717 15.06402035261807
STARLINK-2270           
1 48000U 21024Z   25347.01952272 -.00000677  00000+0 -26577-4 0  9992
2 48000  53.0539 270.8988 0001333  69.7837 290.3295 15.06381486262777
STARLINK-2153           
1 48009U 21024AJ  25347.02547421 -.00000830  00000+0 -36859-4 0  9993
2 48009  53.0565 345.6690 0001674  91.9889 268.1292 15.06395760261722
STARLINK-2226           
1 48010U 21024AK  25346.77297060  .00013352  00000+0  91279-3 0  9994
2 48010  53.0562   6.8018 0001007 103.9714 256.1387 15.06431200261409
